[{"OBJECT_NAME":"STARLINK-32423","OBJECT_ID":"2024-171U","EPOCH":"2026-03-09T22:04:56.732448","MEAN_MOTION":15.3019008,"ECCENTRICITY":8.572e-5,"INCLINATION":53.1603,"RA_OF_ASC_NODE":321.384,"ARG_OF_PERICENTER":86.136,"MEAN_ANOMALY":273.9739,"EPHEMERIS_TYPE":0,"CLASSIFICATION_TYPE":"U","NORAD_CAT_ID":61218,"ELEMENT_SET_NO":999,"REV_AT_EPOCH":8331,"BSTAR":4.2247705e-5,"MEAN_MOTION_DOT":8.92e-6,"MEAN_MOTION_DDOT":0},{"OBJECT_NAME":"GB 3","OBJECT_ID":"1983-056G","EPOCH":"2026-03-09T13:52:06.501792","MEAN_MOTION":13.81302374,"ECCENTRICITY":0.0733296,"INCLINATION":63.3073,"RA_OF_ASC_NODE":158.0315,"ARG_OF_PERICENTER":130.105,"MEAN_ANOMALY":236.6668,"EPHEMERIS_TYPE":0,"CLASSIFICATION_TYPE":"U","NORAD_CAT_ID":14180,"ELEMENT_SET_NO":999,"REV_AT_EPOCH":34523,"BSTAR":0.00052827,"MEAN_MOTION_DOT":4.843e-5,"MEAN_MOTION_DDOT":0}]
